[Satellite]
VERSION=1.1
NAME=COMS 1
NICKNAME=COMS 1
TLE1=1 36744U 10032A   15054.68271780 -.00000370  00000-0  10000-3 0  9999
TLE2=2 36744   0.0287  68.0860 0000817 219.0252 240.0882  1.00270665 17221
